IRIDIUM 171             
1 43929U 19002H   25060.82845840  .00000072  00000+0  18617-4 0  9996
2 43929  86.4039 191.2143 0001739  86.3337 273.8058 14.34215542321257
IRIDIUM 170             
1 43930U 19002J   25060.85756954  .00002576  00000+0  40483-3 0  9994
2 43930  86.6171 190.9756 0002670  82.4638 277.6882 14.72228261329765
IRIDIUM 167             
1 43931U 19002K   25060.82210269  .00000729  00000+0  25315-3 0  9991
2 43931  86.4030 190.9816 0002102  84.5541 275.5894 14.34225468321251
IRIDIUM 181             
1 56726U 23068S   25060.62665100  .00000464  00000+0  13197-3 0  9991
2 56726  86.4455 254.1596 0001935  76.0607 284.0809 14.43306839 94270
IRIDIUM 177             
1 56727U 23068T   25060.85496497  .00003482  00000+0  45479-3 0  9999
2 56727  86.2027 193.0254 0002410  89.4100 270.7397 14.80221265 96491
IRIDIUM 174             
1 56728U 23068U   25060.44391579  .00002654  00000+0  34593-3 0  9995
2 56728  86.2037 193.3448 0002087  99.8390 260.3067 14.80214827 96436
IRIDIUM 178             
1 56729U 23068V   25060.50608434  .00000492  00000+0  61299-4 0  9996
2 56729  86.5775 222.9305 0001081  86.0942 274.0403 14.80219356 96443
IRIDIUM 179             
1 56730U 23068W   25060.83867280  .00001279  00000+0  16492-3 0  9998
2 56730  86.6771 230.1616 0001974  95.1004 265.0443 14.80241037 96499
